{"type": "FeatureCollection", "features": [{"type": "Feature", "properties": {"norad_id": 49537, "name": "COSMOS 1408 DEB", "group": "cosmos-1408-debris", "lat": 54.71120391806712, "lon": 115.44427243736735, "alt_km": 120.51796910278699, "timestamp": "2025-12-03T10:52:57.723751+00:00", "meta": {"OBJECT_NAME": "COSMOS 1408 DEB", "OBJECT_ID": "1982-092AA", "EPOCH": "2025-12-01T10:29:21.651360", "MEAN_MOTION": 16.33498888, "ECCENTRICITY": 0.00127731, "INCLINATION": 82.5092, "RA_OF_ASC_NODE": 107.1368, "ARG_OF_PERICENTER": 299.8571, "MEAN_ANOMALY": 60.1455, "EPHEMERIS_TYPE": 0, "CLASSIFICATION_TYPE": "U", "NORAD_CAT_ID": 49537, "ELEMENT_SET_NO": 999, "REV_AT_EPOCH": 22403, "BSTAR": 0.00094222941, "MEAN_MOTION_DOT": 0.05878558, "MEAN_MOTION_DDOT": -1.252052e-06}, "tle": {"line1": "1 49537U 82092AA  25335.43705615  .05878558 -12521-5  94223-3 0  9994", "line2": "2 49537  82.5092 107.1368 0012773 299.8571  60.1455 16.33498888224033"}}, "geometry": {"type": "Point", "coordinates": [115.44427243736735, 54.71120391806712]}}, {"type": "Feature", "properties": {"norad_id": 50032, "name": "COSMOS 1408 DEB", "group": "cosmos-1408-debris", "lat": -30.18075803877705, "lon": 63.669629923727584, "alt_km": 434.88480638680903, "timestamp": "2025-12-03T10:52:57.723773+00:00", "meta": {"OBJECT_NAME": "COSMOS 1408 DEB", "OBJECT_ID": "1982-092RU", "EPOCH": "2025-12-03T04:47:55.782816", "MEAN_MOTION": 15.45539666, "ECCENTRICITY": 0.0014673, "INCLINATION": 82.5653, "RA_OF_ASC_NODE": 68.2848, "ARG_OF_PERICENTER": 246.0384, "MEAN_ANOMALY": 113.9328, "EPHEMERIS_TYPE": 0, "CLASSIFICATION_TYPE": "U", "NORAD_CAT_ID": 50032, "ELEMENT_SET_NO": 999, "REV_AT_EPOCH": 22456, "BSTAR": 0.00015428, "MEAN_MOTION_DOT": 7.475e-05, "MEAN_MOTION_DDOT": 0}, "tle": {"line1": "1 50032U 82092RU  25337.19995119  .00007475  00000+0  15428-3 0  9990", "line2": "2 50032  82.5653  68.2848 0014673 246.0384 113.9328 15.45539666224561"}}, "geometry": {"type": "Point", "coordinates": [63.669629923727584, -30.18075803877705]}}, {"type": "Feature", "properties": {"norad_id": 50058, "name": "COSMOS 1408 DEB", "group": "cosmos-1408-debris", "lat": -70.30012571987439, "lon": 57.809911109142945, "alt_km": 395.66152625594987, "timestamp": "2025-12-03T10:52:57.723787+00:00", "meta": {"OBJECT_NAME": "COSMOS 1408 DEB", "OBJECT_ID": "1982-092SW", "EPOCH": "2025-12-02T19:49:36.621120", "MEAN_MOTION": 15.63203484, "ECCENTRICITY": 0.0016296, "INCLINATION": 82.6133, "RA_OF_ASC_NODE": 79.7095, "ARG_OF_PERICENTER": 134.2871, "MEAN_ANOMALY": 225.9728, "EPHEMERIS_TYPE": 0, "CLASSIFICATION_TYPE": "U", "NORAD_CAT_ID": 50058, "ELEMENT_SET_NO": 999, "REV_AT_EPOCH": 22649, "BSTAR": 0.00043578, "MEAN_MOTION_DOT": 0.0004023, "MEAN_MOTION_DDOT": 0}, "tle": {"line1": "1 50058U 82092SW  25336.82611830  .00040230  00000+0  43578-3 0  9995", "line2": "2 50058  82.6133  79.7095 0016296 134.2871 225.9728 15.63203484226494"}}, "geometry": {"type": "Point", "coordinates": [57.809911109142945, -70.30012571987439]}}, {"type": "Feature", "properties": {"norad_id": 50404, "name": "COSMOS 1408 DEB", "group": "cosmos-1408-debris", "lat": -61.036572853971336, "lon": -149.80086116771633, "alt_km": 488.3202856705084, "timestamp": "2025-12-03T10:52:57.723799+00:00", "meta": {"OBJECT_NAME": "COSMOS 1408 DEB", "OBJECT_ID": "1982-092ADS", "EPOCH": "2025-12-03T03:12:53.923680", "MEAN_MOTION": 15.11741121, "ECCENTRICITY": 0.0176623, "INCLINATION": 82.2064, "RA_OF_ASC_NODE": 224.8525, "ARG_OF_PERICENTER": 232.1925, "MEAN_ANOMALY": 126.3205, "EPHEMERIS_TYPE": 0, "CLASSIFICATION_TYPE": "U", "NORAD_CAT_ID": 50404, "ELEMENT_SET_NO": 999, "REV_AT_EPOCH": 21048, "BSTAR": 0.003499, "MEAN_MOTION_DOT": 0.00088069, "MEAN_MOTION_DDOT": 0}, "tle": {"line1": "1 50404U 82092ADS 25337.13395745  .00088069  00000+0  34990-2 0  9998", "line2": "2 50404  82.2064 224.8525 0176623 232.1925 126.3205 15.11741121210482"}}, "geometry": {"type": "Point", "coordinates": [-149.80086116771633, -61.036572853971336]}}, {"type": "Feature", "properties": {"norad_id": 50621, "name": "COSMOS 1408 DEB", "group": "cosmos-1408-debris", "lat": -11.365908478446109, "lon": -94.65519919944623, "alt_km": 384.4924873762766, "timestamp": "2025-12-03T10:52:57.723810+00:00", "meta": {"OBJECT_NAME": "COSMOS 1408 DEB", "OBJECT_ID": "1982-092ALR", "EPOCH": "2025-12-03T00:48:05.546592", "MEAN_MOTION": 15.5587706, "ECCENTRICITY": 0.002889, "INCLINATION": 82.5703, "RA_OF_ASC_NODE": 84.2784, "ARG_OF_PERICENTER": 188.0266, "MEAN_ANOMALY": 172.0531, "EPHEMERIS_TYPE": 0, "CLASSIFICATION_TYPE": "U", "NORAD_CAT_ID": 50621, "ELEMENT_SET_NO": 999, "REV_AT_EPOCH": 22099, "BSTAR": 0.00051795, "MEAN_MOTION_DOT": 0.00036668, "MEAN_MOTION_DDOT": 0}, "tle": {"line1": "1 50621U 82092ALR 25337.03339753  .00036668  00000+0  51795-3 0  9996", "line2": "2 50621  82.5703  84.2784 0028890 188.0266 172.0531 15.55877060220997"}}, "geometry": {"type": "Point", "coordinates": [-94.65519919944623, -11.365908478446109]}}]}